[{"OBJECT_NAME":"STARLINK-30385","OBJECT_ID":"2023-134H","EPOCH":"2026-03-09T22:00:01.999584","MEAN_MOTION":15.26742609,"ECCENTRICITY":0.00013436,"INCLINATION":43,"RA_OF_ASC_NODE":181.6427,"ARG_OF_PERICENTER":270.2641,"MEAN_ANOMALY":188.4405,"EPHEMERIS_TYPE":0,"CLASSIFICATION_TYPE":"U","NORAD_CAT_ID":57778,"ELEMENT_SET_NO":999,"REV_AT_EPOCH":562,"BSTAR":0.00022289209,"MEAN_MOTION_DOT":5.724e-5,"MEAN_MOTION_DDOT":0},{"OBJECT_NAME":"ELECTRON KICK STAGE R\/B","OBJECT_ID":"2024-047B","EPOCH":"2026-03-09T21:11:54.433824","MEAN_MOTION":15.27307897,"ECCENTRICITY":0.00092426,"INCLINATION":97.6338,"RA_OF_ASC_NODE":46.9382,"ARG_OF_PERICENTER":20.6031,"MEAN_ANOMALY":339.5579,"EPHEMERIS_TYPE":0,"CLASSIFICATION_TYPE":"U","NORAD_CAT_ID":59225,"ELEMENT_SET_NO":999,"REV_AT_EPOCH":10999,"BSTAR":0.00091229405,"MEAN_MOTION_DOT":0.00024409,"MEAN_MOTION_DDOT":0}]
